IRIDIUM 150             
1 43257U 18030J   25028.37291080  .00000021  00000+0  41465-6 0  9998
2 43257  86.4017 141.5159 0002231  97.8947 262.2502 14.34217564357806
IRIDIUM 143             
1 43258U 18030K   25028.28411531  .00000754  00000+0  26211-3 0  9996
2 43258  86.4020 141.6259 0002618 100.3005 259.8486 14.34218912357752
IRIDIUM 161             
1 43478U 18047C   25028.71780662  .00000732  00000+0  21149-3 0  9991
2 43478  86.4497 299.2796 0002030  81.0211 279.1220 14.43287106352377
IRIDIUM 152             
1 43479U 18047D   25028.46613341  .00000586  00000+0  20212-3 0  9990
2 43479  86.3974 299.2446 0002022  85.1265 275.0161 14.34216150350158
IRIDIUM 147             
1 43480U 18047E   25028.47247980  .00000063  00000+0  15266-4 0  9999
2 43480  86.3975 299.2378 0001912  78.2888 281.8522 14.34217885350147
IRIDIUM 110             
1 43481U 18047F   25028.26951617  .00000058  00000+0  13757-4 0  9993
2 43481  86.3980 299.4019 0001629  88.7839 271.3544 14.34217667350107
IRIDIUM 162             
1 43482U 18047G   25028.71150863  .00000846  00000+0  24563-3 0  9999
2 43482  86.4498 299.1795 0001922  85.8151 274.3270 14.43282360352363
IRIDIUM 160             
1 43569U 18061A   25029.12233999  .00000213  00000+0  69137-4 0  9994
2 43569  86.3942 267.4000 0001867  81.5143 278.6264 14.34213184341121
